{
  "type": "FeatureCollection",
  "features": [
    {
      "type": "Feature",
      "properties": {
        "norad_id": 41599,
        "name": "CARTOSAT-2C",
        "group": "resource",
        "lat": -65.68997033462162,
        "lon": 71.36268784477438,
        "alt_km": 516.3337756801275,
        "timestamp": "2025-12-23T07:45:09.053955+00:00",
        "meta_object_name": "CARTOSAT-2C",
        "meta_object_id": "2016-040A",
        "meta_epoch": "2025-12-21T18:06:24.689088",
        "meta_mean_motion": 15.19188008,
        "meta_eccentricity": 0.00110207,
        "meta_inclination": 97.4756,
        "meta_ra_of_asc_node": 52.9115,
        "meta_arg_of_pericenter": 34.9019,
        "meta_mean_anomaly": 325.2936,
        "meta_ephemeris_type": 0,
        "meta_classification_type": "U",
        "meta_norad_cat_id": 41599,
        "meta_element_set_no": 999,
        "meta_rev_at_epoch": 52677,
        "meta_bstar": 0.00012803175,
        "meta_mean_motion_dot": 2.628e-05,
        "meta_mean_motion_ddot": 0,
        "tle_line1": "1 41599U 16040A   25355.75445242  .00002628  00000+0  12803-3 0  9996",
        "tle_line2": "2 41599  97.4756  52.9115 0011020  34.9019 325.2936 15.19188008526779"
      },
      "geometry": {
        "type": "Point",
        "coordinates": [
          71.36268784477438,
          -65.68997033462162
        ]
      }
    },
    {
      "type": "Feature",
      "properties": {
        "norad_id": 41601,
        "name": "SKYSAT-C1",
        "group": "resource",
        "lat": 38.76632764484796,
        "lon": -140.61350898570805,
        "alt_km": 465.51046129545466,
        "timestamp": "2025-12-23T07:45:09.053965+00:00",
        "meta_object_name": "SKYSAT-C1",
        "meta_object_id": "2016-040C",
        "meta_epoch": "2025-12-22T20:10:21.096480",
        "meta_mean_motion": 15.32762475,
        "meta_eccentricity": 0.00011823,
        "meta_inclination": 96.9803,
        "meta_ra_of_asc_node": 33.2846,
        "meta_arg_of_pericenter": 335.9876,
        "meta_mean_anomaly": 24.1312,
        "meta_ephemeris_type": 0,
        "meta_classification_type": "U",
        "meta_norad_cat_id": 41601,
        "meta_element_set_no": 999,
        "meta_rev_at_epoch": 53082,
        "meta_bstar": 0.00032390856,
        "meta_mean_motion_dot": 0.0001018,
        "meta_mean_motion_ddot": 0,
        "tle_line1": "1 41601U 16040C   25356.84052195  .00010180  00000+0  32391-3 0  9998",
        "tle_line2": "2 41601  96.9803  33.2846 0001182 335.9876  24.1312 15.32762475530821"
      },
      "geometry": {
        "type": "Point",
        "coordinates": [
          -140.61350898570805,
          38.76632764484796
        ]
      }
    },
    {
      "type": "Feature",
      "properties": {
        "norad_id": 41603,
        "name": "LAPAN-A3",
        "group": "resource",
        "lat": -62.343226775852855,
        "lon": 160.6491528687373,
        "alt_km": 474.0958941528452,
        "timestamp": "2025-12-23T07:45:09.053975+00:00",
        "meta_object_name": "LAPAN-A3",
        "meta_object_id": "2016-040E",
        "meta_epoch": "2025-12-22T22:51:12.309984",
        "meta_mean_motion": 15.31630713,
        "meta_eccentricity": 0.0008758,
        "meta_inclination": 97.1429,
        "meta_ra_of_asc_node": 354.137,
        "meta_arg_of_pericenter": 291.8674,
        "meta_mean_anomaly": 68.1636,
        "meta_ephemeris_type": 0,
        "meta_classification_type": "U",
        "meta_norad_cat_id": 41603,
        "meta_element_set_no": 999,
        "meta_rev_at_epoch": 52782,
        "meta_bstar": 0.00015278552,
        "meta_mean_motion_dot": 4.597e-05,
        "meta_mean_motion_ddot": 0,
        "tle_line1": "1 41603U 16040E   25356.95222581  .00004597  00000+0  15279-3 0  9991",
        "tle_line2": "2 41603  97.1429 354.1370 0008758 291.8674  68.1636 15.31630713527820"
      },
      "geometry": {
        "type": "Point",
        "coordinates": [
          160.6491528687373,
          -62.343226775852855
        ]
      }
    },
    {
      "type": "Feature",
      "properties": {
        "norad_id": 41604,
        "name": "BIROS",
        "group": "resource",
        "lat": -14.486418813408125,
        "lon": -152.62530578375888,
        "alt_km": 295.3225389641875,
        "timestamp": "2025-12-23T07:45:09.053985+00:00",
        "meta_object_name": "BIROS",
        "meta_object_id": "2016-040F",
        "meta_epoch": "2025-12-21T20:16:27.693408",
        "meta_mean_motion": 15.93143853,
        "meta_eccentricity": 0.00037129,
        "meta_inclination": 97.0682,
        "meta_ra_of_asc_node": 27.6655,
        "meta_arg_of_pericenter": 133.3571,
        "meta_mean_anomaly": 226.8015,
        "meta_ephemeris_type": 0,
        "meta_classification_type": "U",
        "meta_norad_cat_id": 41604,
        "meta_element_set_no": 999,
        "meta_rev_at_epoch": 53017,
        "meta_bstar": 0.00065293224,
        "meta_mean_motion_dot": 0.00227507,
        "meta_mean_motion_ddot": 2.144608e-05,
        "tle_line1": "1 41604U 16040F   25355.84476497  .00227507  21446-4  65293-3 0  9997",
        "tle_line2": "2 41604  97.0682  27.6655 0003712 133.3571 226.8015 15.93143853530178"
      },
      "geometry": {
        "type": "Point",
        "coordinates": [
          -152.62530578375888,
          -14.486418813408125
        ]
      }
    },
    {
      "type": "Feature",
      "properties": {
        "norad_id": 41727,
        "name": "GAOFEN-3",
        "group": "resource",
        "lat": -40.752303747283726,
        "lon": 175.42923984673806,
        "alt_km": 758.5001898650007,
        "timestamp": "2025-12-23T07:45:09.053995+00:00",
        "meta_object_name": "GAOFEN-3",
        "meta_object_id": "2016-049A",
        "meta_epoch": "2025-12-23T00:04:11.154432",
        "meta_mean_motion": 14.42215404,
        "meta_eccentricity": 0.00011396,
        "meta_inclination": 98.4031,
        "meta_ra_of_asc_node": 2.4322,
        "meta_arg_of_pericenter": 56.734,
        "meta_mean_anomaly": 303.3958,
        "meta_ephemeris_type": 0,
        "meta_classification_type": "U",
        "meta_norad_cat_id": 41727,
        "meta_element_set_no": 999,
        "meta_rev_at_epoch": 49325,
        "meta_bstar": -2.8840743e-05,
        "meta_mean_motion_dot": -1.38e-06,
        "meta_mean_motion_ddot": 0,
        "tle_line1": "1 41727U 16049A   25357.00290688 -.00000138  00000+0 -28841-4 0  9996",
        "tle_line2": "2 41727  98.4031   2.4322 0001139  56.7340 303.3958 14.42215404493251"
      },
      "geometry": {
        "type": "Point",
        "coordinates": [
          175.42923984673806,
          -40.752303747283726
        ]
      }
    },
    {
      "type": "Feature",
      "properties": {
        "norad_id": 41771,
        "name": "SKYSAT-C4",
        "group": "resource",
        "lat": 81.71260065219757,
        "lon": -34.697568038739185,
        "alt_km": 429.9530644266406,
        "timestamp": "2025-12-23T07:45:09.054006+00:00",
        "meta_object_name": "SKYSAT-C4",
        "meta_object_id": "2016-058B",
        "meta_epoch": "2025-12-22T12:42:01.643616",
        "meta_mean_motion": 15.425136,
        "meta_eccentricity": 0.00023222,
        "meta_inclination": 96.9359,
        "meta_ra_of_asc_node": 21.2414,
        "meta_arg_of_pericenter": 126.8022,
        "meta_mean_anomaly": 233.344,
        "meta_ephemeris_type": 0,
        "meta_classification_type": "U",
        "meta_norad_cat_id": 41771,
        "meta_element_set_no": 999,
        "meta_rev_at_epoch": 51818,
        "meta_bstar": 0.00035321412,
        "meta_mean_motion_dot": 0.00015247,
        "meta_mean_motion_ddot": 0,
        "tle_line1": "1 41771U 16058B   25356.52918569  .00015247  00000+0  35321-3 0  9991",
        "tle_line2": "2 41771  96.9359  21.2414 0002322 126.8022 233.3440 15.42513600518186"
      },
      "geometry": {
        "type": "Point",
        "coordinates": [
          -34.697568038739185,
          81.71260065219757
        ]
      }
    },
    {
      "type": "Feature",
      "properties": {
        "norad_id": 41772,
        "name": "SKYSAT-C5",
        "group": "resource",
        "lat": 43.487623439772335,
        "lon": 33.86765108772687,
        "alt_km": 462.69925489704747,
        "timestamp": "2025-12-23T07:45:09.054016+00:00",
        "meta_object_name": "SKYSAT-C5",
        "meta_object_id": "2016-058C",
        "meta_epoch": "2025-12-22T20:36:11.256768",
        "meta_mean_motion": 15.3404884,
        "meta_eccentricity": 0.00038645,
        "meta_inclination": 97.0737,
        "meta_ra_of_asc_node": 40.1871,
        "meta_arg_of_pericenter": 242.4795,
        "meta_mean_anomaly": 117.6056,
        "meta_ephemeris_type": 0,
        "meta_classification_type": "U",
        "meta_norad_cat_id": 41772,
        "meta_element_set_no": 999,
        "meta_rev_at_epoch": 51671,
        "meta_bstar": 0.00031467605,
        "meta_mean_motion_dot": 0.00010298,
        "meta_mean_motion_ddot": 0,
        "tle_line1": "1 41772U 16058C   25356.85846362  .00010298  00000+0  31468-3 0  9998",
        "tle_line2": "2 41772  97.0737  40.1871 0003864 242.4795 117.6056 15.34048840516714"
      },
      "geometry": {
        "type": "Point",
        "coordinates": [
          33.86765108772687,
          43.487623439772335
        ]
      }
    }
  ]
}